BEIDOU-2 IGSO-5 (C10)   
1 37948U 11073A   25102.94558605 -.00000182  00000+0  00000+0 0  9995
2 37948  48.4638 276.8460 0102105 219.2264 141.1464  1.00263768 48820
BEIDOU-2 G5 (C05)       
1 38091U 12008A   25103.90114103  .00000066  00000+0  00000+0 0  9992
2 38091   2.5039  71.2398 0011875 261.6274 252.5598  1.00272606 48060
BEIDOU-2 M3 (C11)       
1 38250U 12018A   25103.08809372 -.00000068  00000+0  00000+0 0  9991
2 38250  56.1174 319.3293 0020792 272.5452  87.2546  1.86233840 87935
BEIDOU-2 M4 (C12)       
1 38251U 12018B   25103.55663458 -.00000067  00000+0  00000+0 0  9996
2 38251  56.0209 318.5623 0011778 278.3290  81.5733  1.86232276 87948
BEIDOU-2 M6 (C14)       
1 38775U 12050B   25102.19267070 -.00000015  00000+0  00000+0 0  9995
2 38775  56.1664  77.1870 0014615 338.5396  21.3765  1.86231033 85288
BEIDOU-3S M2S (C58)     
1 40748U 15037A   25103.22211935 -.00000067  00000+0  00000+0 0  9997
2 40748  55.2446 316.8052 0008078 266.6915  93.2495  1.86229338 66112
BEIDOU-3S M1S (C57)     
1 40749U 15037B   25103.48450300 -.00000067  00000+0  00000+0 0  9997
2 40749  55.2406 316.7889 0004261  20.7616 339.2886  1.86253960 66129
BEIDOU-3S IGSO-2S (C56) 
1 40938U 15053A   25103.87583733 -.00000146  00000+0  00000+0 0  9993
2 40938  49.8899 263.8712 0057046 186.5468 162.8972  1.00282678 35043
BEIDOU-2 IGSO-6 (C13)   
1 41434U 16021A   25099.61122961 -.00000157  00000+0  00000+0 0  9991
2 41434  59.6168  42.3641 0052597 230.3227 239.0707  1.00258086 33138
