[
    {
        "OBJECT_NAME": "BEIDOU-2 IGSO-5",
        "OBJECT_ID": "2011-073A",
        "EPOCH": "2025-04-12T22:41:38.634720",
        "MEAN_MOTION": 1.00263768,
        "ECCENTRICITY": 0.0102105,
        "INCLINATION": 48.4638,
        "RA_OF_ASC_NODE": 276.846,
        "ARG_OF_PERICENTER": 219.2264,
        "MEAN_ANOMALY": 141.1464,
        "EPHEMERIS_TYPE": 0,
        "CLASSIFICATION_TYPE": "U",
        "NORAD_CAT_ID": 37948,
        "ELEMENT_SET_NO": 999,
        "REV_AT_EPOCH": 4882,
        "BSTAR": 0,
        "MEAN_MOTION_DOT": -1.82e-06,
        "MEAN_MOTION_DDOT": 0
    },
    {
        "OBJECT_NAME": "BEIDOU-2 G5",
        "OBJECT_ID": "2012-008A",
        "EPOCH": "2025-04-13T21:37:38.584992",
        "MEAN_MOTION": 1.00272606,
        "ECCENTRICITY": 0.0011875,
        "INCLINATION": 2.5039,
        "RA_OF_ASC_NODE": 71.2398,
        "ARG_OF_PERICENTER": 261.6274,
        "MEAN_ANOMALY": 252.5598,
        "EPHEMERIS_TYPE": 0,
        "CLASSIFICATION_TYPE": "U",
        "NORAD_CAT_ID": 38091,
        "ELEMENT_SET_NO": 999,
        "REV_AT_EPOCH": 4806,
        "BSTAR": 0,
        "MEAN_MOTION_DOT": 6.6e-07,
        "MEAN_MOTION_DDOT": 0
    },
    {
        "OBJECT_NAME": "BEIDOU-2 M3",
        "OBJECT_ID": "2012-018A",
        "EPOCH": "2025-04-13T02:06:51.297408",
        "MEAN_MOTION": 1.8623384,
        "ECCENTRICITY": 0.0020792,
        "INCLINATION": 56.1174,
        "RA_OF_ASC_NODE": 319.3293,
        "ARG_OF_PERICENTER": 272.5452,
        "MEAN_ANOMALY": 87.2546,
        "EPHEMERIS_TYPE": 0,
        "CLASSIFICATION_TYPE": "U",
        "NORAD_CAT_ID": 38250,
        "ELEMENT_SET_NO": 999,
        "REV_AT_EPOCH": 8793,
        "BSTAR": 0,
        "MEAN_MOTION_DOT": -6.8e-07,
        "MEAN_MOTION_DDOT": 0
    },
    {
        "OBJECT_NAME": "BEIDOU-2 M4",
        "OBJECT_ID": "2012-018B",
        "EPOCH": "2025-04-13T13:21:33.227712",
        "MEAN_MOTION": 1.86232276,
        "ECCENTRICITY": 0.0011778,
        "INCLINATION": 56.0209,
        "RA_OF_ASC_NODE": 318.5623,
        "ARG_OF_PERICENTER": 278.329,
        "MEAN_ANOMALY": 81.5733,
        "EPHEMERIS_TYPE": 0,
        "CLASSIFICATION_TYPE": "U",
        "NORAD_CAT_ID": 38251,
        "ELEMENT_SET_NO": 999,
        "REV_AT_EPOCH": 8794,
        "BSTAR": 0,
        "MEAN_MOTION_DOT": -6.7e-07,
        "MEAN_MOTION_DDOT": 0
    },
    {
        "OBJECT_NAME": "BEIDOU-2 M6",
        "OBJECT_ID": "2012-050B",
        "EPOCH": "2025-04-12T04:37:26.748480",
        "MEAN_MOTION": 1.86231033,
        "ECCENTRICITY": 0.0014615,
        "INCLINATION": 56.1664,
        "RA_OF_ASC_NODE": 77.187,
        "ARG_OF_PERICENTER": 338.5396,
        "MEAN_ANOMALY": 21.3765,
        "EPHEMERIS_TYPE": 0,
        "CLASSIFICATION_TYPE": "U",
        "NORAD_CAT_ID": 38775,
        "ELEMENT_SET_NO": 999,
        "REV_AT_EPOCH": 8528,
        "BSTAR": 0,
        "MEAN_MOTION_DOT": -1.5e-07,
        "MEAN_MOTION_DDOT": 0
    },
    {
        "OBJECT_NAME": "BEIDOU-3S M2S",
        "OBJECT_ID": "2015-037A",
        "EPOCH": "2025-04-13T05:19:51.111840",
        "MEAN_MOTION": 1.86229338,
        "ECCENTRICITY": 0.0008078,
        "INCLINATION": 55.2446,
        "RA_OF_ASC_NODE": 316.8052,
        "ARG_OF_PERICENTER": 266.6915,
        "MEAN_ANOMALY": 93.2495,
        "EPHEMERIS_TYPE": 0,
        "CLASSIFICATION_TYPE": "U",
        "NORAD_CAT_ID": 40748,
        "ELEMENT_SET_NO": 999,
        "REV_AT_EPOCH": 6611,
        "BSTAR": 0,
        "MEAN_MOTION_DOT": -6.7e-07,
        "MEAN_MOTION_DDOT": 0
    },
    {
        "OBJECT_NAME": "BEIDOU-3S M1S",
        "OBJECT_ID": "2015-037B",
        "EPOCH": "2025-04-13T11:37:41.059200",
        "MEAN_MOTION": 1.8625396,
        "ECCENTRICITY": 0.0004261,
        "INCLINATION": 55.2406,
        "RA_OF_ASC_NODE": 316.7889,
        "ARG_OF_PERICENTER": 20.7616,
        "MEAN_ANOMALY": 339.2886,
        "EPHEMERIS_TYPE": 0,
        "CLASSIFICATION_TYPE": "U",
        "NORAD_CAT_ID": 40749,
        "ELEMENT_SET_NO": 999,
        "REV_AT_EPOCH": 6612,
        "BSTAR": 0,
        "MEAN_MOTION_DOT": -6.7e-07,
        "MEAN_MOTION_DDOT": 0
    },
    {
        "OBJECT_NAME": "BEIDOU-3S IGSO-2S",
        "OBJECT_ID": "2015-053A",
        "EPOCH": "2025-04-13T21:01:12.345312",
        "MEAN_MOTION": 1.00282678,
        "ECCENTRICITY": 0.0057046,
        "INCLINATION": 49.8899,
        "RA_OF_ASC_NODE": 263.8712,
        "ARG_OF_PERICENTER": 186.5468,
        "MEAN_ANOMALY": 162.8972,
        "EPHEMERIS_TYPE": 0,
        "CLASSIFICATION_TYPE": "U",
        "NORAD_CAT_ID": 40938,
        "ELEMENT_SET_NO": 999,
        "REV_AT_EPOCH": 3504,
        "BSTAR": 0,
        "MEAN_MOTION_DOT": -1.46e-06,
        "MEAN_MOTION_DDOT": 0
    },
    {
        "OBJECT_NAME": "BEIDOU-2 IGSO-6",
        "OBJECT_ID": "2016-021A",
        "EPOCH": "2025-04-09T14:40:10.238304",
        "MEAN_MOTION": 1.00258086,
        "ECCENTRICITY": 0.0052597,
        "INCLINATION": 59.6168,
        "RA_OF_ASC_NODE": 42.3641,
        "ARG_OF_PERICENTER": 230.3227,
        "MEAN_ANOMALY": 239.0707,
        "EPHEMERIS_TYPE": 0,
        "CLASSIFICATION_TYPE": "U",
        "NORAD_CAT_ID": 41434,
        "ELEMENT_SET_NO": 999,
        "REV_AT_EPOCH": 3313,
        "BSTAR": 0,
        "MEAN_MOTION_DOT": -1.57e-06,
        "MEAN_MOTION_DDOT": 0
    }
]